id,name,category,address,link,parse,split,address-from-parse,longitude_raw,latitude_raw,iLvl,image_url,lat,long
1,珈琲 天国,スイーツ,東京都台東区浅草1-41-9,http://geocode.csis.u-tokyo.ac.jp/cgi-bin/simple_geocode.cgi?charset=UTF8&addr=東京都台東区浅草1-41-9,東京都台東区浅草1-41-9wgs19845東京都台東区浅草1-41- 東京都/台東区/浅草/一丁目/４１番 139.793930 35.713047 7 ,東京都台東区浅草1-41-9wgs19845東京都台東区浅草1-41-,東京都/台東区/浅草/一丁目/４１番,139.79393,35.713047,7,,0.000036,0.000140
2,おにぎり浅草宿六,ご飯,東京都台東区浅草3-9-10,http://geocode.csis.u-tokyo.ac.jp/cgi-bin/simple_geocode.cgi?charset=UTF8&addr=東京都台東区浅草3-9-10,東京都台東区浅草3-9-10wgs19845東京都台東区浅草3-9- 東京都/台東区/浅草/三丁目/９番 139.794586 35.717014 7 ,東京都台東区浅草3-9-10wgs19845東京都台東区浅草3-9-,東京都/台東区/浅草/三丁目/９番,139.794586,35.717014,7,,0.000036,0.000140
3,亀十 ,スイーツ,東京都台東区雷門2-18-11,http://geocode.csis.u-tokyo.ac.jp/cgi-bin/simple_geocode.cgi?charset=UTF8&addr=東京都台東区雷門2-18-11,東京都台東区雷門2-18-11wgs19845東京都台東区雷門2-18- 東京都/台東区/雷門/二丁目/１８番 139.796539 35.710377 7 ,東京都台東区雷門2-18-11wgs19845東京都台東区雷門2-18-,東京都/台東区/雷門/二丁目/１８番,139.796539,35.710377,7,,0.000036,0.000140
4,梅園 浅草本店 ,スイーツ,東京都台東区浅草1-31-12,http://geocode.csis.u-tokyo.ac.jp/cgi-bin/simple_geocode.cgi?charset=UTF8&addr=東京都台東区浅草1-31-12,東京都台東区浅草1-31-12wgs19845東京都台東区浅草1-31- 東京都/台東区/浅草/一丁目/３１番 139.796005 35.712341 7 ,東京都台東区浅草1-31-12wgs19845東京都台東区浅草1-31-,東京都/台東区/浅草/一丁目/３１番,139.796005,35.712341,7,,0.000036,0.000140
5,満願堂 本店 ,スイーツ,東京都台東区浅草1-21-5,http://geocode.csis.u-tokyo.ac.jp/cgi-bin/simple_geocode.cgi?charset=UTF8&addr=東京都台東区浅草1-21-5,東京都台東区浅草1-21-5wgs19845東京都台東区浅草1-21- 東京都/台東区/浅草/一丁目/２１番 139.795166 35.711834 7 ,東京都台東区浅草1-21-5wgs19845東京都台東区浅草1-21-,東京都/台東区/浅草/一丁目/２１番,139.795166,35.711834,7,,0.000036,0.000140
6,舟和 本店 ,スイーツ,東京都台東区浅草1-22-10,http://geocode.csis.u-tokyo.ac.jp/cgi-bin/simple_geocode.cgi?charset=UTF8&addr=東京都台東区浅草1-22-10,東京都台東区浅草1-22-10wgs19845東京都台東区浅草1-22- 東京都/台東区/浅草/一丁目/２２番 139.794388 35.712055 7 ,東京都台東区浅草1-22-10wgs19845東京都台東区浅草1-22-,東京都/台東区/浅草/一丁目/２２番,139.794388,35.712055,7,,0.000036,0.000140
7,"志""満ん草餅",スイーツ,東京都墨田区堤通1-5-9,http://geocode.csis.u-tokyo.ac.jp/cgi-bin/simple_geocode.cgi?charset=UTF8&addr=東京都墨田区堤通1-5-9,東京都墨田区堤通1-5-9wgs19845東京都墨田区堤通1-5- 東京都/墨田区/堤通/一丁目/５番 139.812134 35.723095 7 ,東京都墨田区堤通1-5-9wgs19845東京都墨田区堤通1-5-,東京都/墨田区/堤通/一丁目/５番,139.812134,35.723095,7,,0.000036,0.000140
8,大黒家天麩羅 本店,ご飯,東京都台東区浅草1-38-10,http://geocode.csis.u-tokyo.ac.jp/cgi-bin/simple_geocode.cgi?charset=UTF8&addr=東京都台東区浅草1-38-10,東京都台東区浅草1-38-10wgs19845東京都台東区浅草1-38- 東京都/台東区/浅草/一丁目/３８番 139.795303 35.712570 7 ,東京都台東区浅草1-38-10wgs19845東京都台東区浅草1-38-,東京都/台東区/浅草/一丁目/３８番,139.795303,35.71257,7,,0.000036,0.000140
9,「中世すみだの歴史さんぽ」,観光,東京都墨田区向島二丁目3番5号,http://geocode.csis.u-tokyo.ac.jp/cgi-bin/simple_geocode.cgi?charset=UTF8&addr=東京都墨田区向島二丁目3番5号,東京都墨田区向島二丁目3番5号wgs19845東京都墨田区向島二丁目3番 東京都/墨田区/向島/二丁目/３番 139.805801 35.713821 7 ,東京都墨田区向島二丁目3番5号wgs19845東京都墨田区向島二丁目3番,東京都/墨田区/向島/二丁目/３番,139.805801,35.713821,7,,0.000036,0.000140
10,置行堀（本所七不思議）,観光,東京都墨田区横網一丁目5番2号,http://geocode.csis.u-tokyo.ac.jp/cgi-bin/simple_geocode.cgi?charset=UTF8&addr=東京都墨田区横網一丁目5番2号,東京都墨田区横網一丁目5番2号wgs19845東京都墨田区横網一丁目5番 東京都/墨田区/横網/一丁目/５番 139.796951 35.697376 7 ,東京都墨田区横網一丁目5番2号wgs19845東京都墨田区横網一丁目5番,東京都/墨田区/横網/一丁目/５番,139.796951,35.697376,7,https://upload.wikimedia.org/wikipedia/commons/3/31/Kuniteru_Honjo-nana-fushigi_Oitekebori.jpg,0.000036,0.000140
11,送り提灯（本所七不思議）,観光,東京都墨田区太平１丁目２６－１６,http://geocode.csis.u-tokyo.ac.jp/cgi-bin/simple_geocode.cgi?charset=UTF8&addr=東京都墨田区太平１丁目２６－１６,東京都墨田区太平１丁目２６−１６wgs19845東京都墨田区太平１丁目２６− 東京都/墨田区/太平/一丁目/２６番 139.810013 35.702114 7 ,東京都墨田区太平１丁目２６−１６wgs19845東京都墨田区太平１丁目２６−,東京都/墨田区/太平/一丁目/２６番,139.810013,35.702114,7,https://upload.wikimedia.org/wikipedia/commons/b/b9/Kuniteru_Honjo-nana-fushigi_Okuri-chochin.jpg,0.000036,0.000140
12,送り拍子木（本所七不思議）,観光,東京都墨田区亀沢1丁目7番地,http://geocode.csis.u-tokyo.ac.jp/cgi-bin/simple_geocode.cgi?charset=UTF8&addr=東京都墨田区亀沢1丁目7番地,東京都墨田区亀沢1丁目7番地wgs19845東京都墨田区亀沢1丁目7番 東京都/墨田区/亀沢/一丁目/７番 139.797714 35.696480 7 ,東京都墨田区亀沢1丁目7番地wgs19845東京都墨田区亀沢1丁目7番,東京都/墨田区/亀沢/一丁目/７番,139.797714,35.69648,7,https://upload.wikimedia.org/wikipedia/commons/0/01/Kuniteru_Honjo-nana-fushigi_Okuri-hyoshigi.jpg,0.000036,0.000140
13,燈無蕎麦（本所七不思議）,観光,東京都墨田区亀沢1丁目7番地,http://geocode.csis.u-tokyo.ac.jp/cgi-bin/simple_geocode.cgi?charset=UTF8&addr=東京都墨田区亀沢1丁目7番地,東京都墨田区亀沢1丁目7番地wgs19845東京都墨田区亀沢1丁目7番 東京都/墨田区/亀沢/一丁目/７番 139.797714 35.696480 7 ,東京都墨田区亀沢1丁目7番地wgs19845東京都墨田区亀沢1丁目7番,東京都/墨田区/亀沢/一丁目/７番,139.797714,35.69648,7,https://upload.wikimedia.org/wikipedia/commons/5/50/Kuniteru_Honjo-nana-fushigi_Akarinashisoba.jpg,0.000036,0.000140
14,足洗邸（本所七不思議）,観光,東京都墨田区亀沢三丁目,http://geocode.csis.u-tokyo.ac.jp/cgi-bin/simple_geocode.cgi?charset=UTF8&addr=東京都墨田区亀沢三丁目,東京都墨田区亀沢三丁目wgs19845東京都墨田区亀沢三丁目 東京都/墨田区/亀沢/三丁目 139.803986 35.697594 6 ,東京都墨田区亀沢三丁目wgs19845東京都墨田区亀沢三丁目,東京都/墨田区/亀沢/三丁目,139.803986,35.697594,6,https://upload.wikimedia.org/wikipedia/commons/f/f2/Kuniteru_Honjo-nana-fushigi_Ashiaraiyashiki.jpg,0.000036,0.000140
15,片葉の葦（本所七不思議）,観光,東京都墨田区両国一丁目,http://geocode.csis.u-tokyo.ac.jp/cgi-bin/simple_geocode.cgi?charset=UTF8&addr=東京都墨田区両国一丁目,東京都墨田区両国一丁目wgs19845東京都墨田区両国一丁目 東京都/墨田区/両国/一丁目 139.789856 35.694107 6 ,東京都墨田区両国一丁目wgs19845東京都墨田区両国一丁目,東京都/墨田区/両国/一丁目,139.789856,35.694107,6,https://upload.wikimedia.org/wikipedia/commons/4/4d/Kuniteru_Honjo-nana-fushigi_Kataha-no-ashi.jpg,0.000036,0.000140
16,落葉なき椎（本所七不思議）,観光,東京都墨田区横網２丁目１−１１,http://geocode.csis.u-tokyo.ac.jp/cgi-bin/simple_geocode.cgi?charset=UTF8&addr=東京都墨田区横網２丁目１−１１,東京都墨田区横網２丁目１−１１wgs19845東京都墨田区横網２丁目１− 東京都/墨田区/横網/二丁目/１番 139.794403 35.699757 7 ,東京都墨田区横網２丁目１−１１wgs19845東京都墨田区横網２丁目１−,東京都/墨田区/横網/二丁目/１番,139.794403,35.699757,7,,0.000036,0.000140
17,狸囃子（本所七不思議）,観光,東京都墨田区東駒形三丁目,http://geocode.csis.u-tokyo.ac.jp/cgi-bin/simple_geocode.cgi?charset=UTF8&addr=東京都墨田区東駒形三丁目,東京都墨田区東駒形三丁目wgs19845東京都墨田区東駒形三丁目 東京都/墨田区/東駒形/三丁目 139.803085 35.706669 6 ,東京都墨田区東駒形三丁目wgs19845東京都墨田区東駒形三丁目,東京都/墨田区/東駒形/三丁目,139.803085,35.706669,6,https://upload.wikimedia.org/wikipedia/commons/b/b0/Kuniteru_Honjo-nana-fushigi_Tanuki-bayashi.jpg,0.000036,0.000140
18,津軽の太鼓（本所七不思議）,観光,東京都墨田区亀沢二丁目7番7号,http://geocode.csis.u-tokyo.ac.jp/cgi-bin/simple_geocode.cgi?charset=UTF8&addr=東京都墨田区亀沢二丁目7番7号,東京都墨田区亀沢二丁目7番7号wgs19845東京都墨田区亀沢二丁目7番 東京都/墨田区/亀沢/二丁目/７番 139.800446 35.696617 7 ,東京都墨田区亀沢二丁目7番7号wgs19845東京都墨田区亀沢二丁目7番,東京都/墨田区/亀沢/二丁目/７番,139.800446,35.696617,7,,0.000036,0.000140
,,,,http://geocode.csis.u-tokyo.ac.jp/cgi-bin/simple_geocode.cgi?charset=UTF8&addr=,wgs19840,wgs19840,,,,,,0.000000,0.000000
,,,,http://geocode.csis.u-tokyo.ac.jp/cgi-bin/simple_geocode.cgi?charset=UTF8&addr=,wgs19840,wgs19840,,,,,,0.000000,0.000000
,,,,http://geocode.csis.u-tokyo.ac.jp/cgi-bin/simple_geocode.cgi?charset=UTF8&addr=,wgs19840,wgs19840,,,,,,0.000000,0.000000
,,,,http://geocode.csis.u-tokyo.ac.jp/cgi-bin/simple_geocode.cgi?charset=UTF8&addr=,wgs19840,wgs19840,,,,,,0.000000,0.000000
,,,,http://geocode.csis.u-tokyo.ac.jp/cgi-bin/simple_geocode.cgi?charset=UTF8&addr=,wgs19840,wgs19840,,,,,,0.000000,0.000000
,,,,http://geocode.csis.u-tokyo.ac.jp/cgi-bin/simple_geocode.cgi?charset=UTF8&addr=,wgs19840,wgs19840,,,,,,0.000000,0.000000
,,,,http://geocode.csis.u-tokyo.ac.jp/cgi-bin/simple_geocode.cgi?charset=UTF8&addr=,wgs19840,wgs19840,,,,,,0.000000,0.000000
,,,,http://geocode.csis.u-tokyo.ac.jp/cgi-bin/simple_geocode.cgi?charset=UTF8&addr=,wgs19840,wgs19840,,,,,,0.000000,0.000000
,,,,http://geocode.csis.u-tokyo.ac.jp/cgi-bin/simple_geocode.cgi?charset=UTF8&addr=,wgs19840,wgs19840,,,,,,0.000000,0.000000
,,,,http://geocode.csis.u-tokyo.ac.jp/cgi-bin/simple_geocode.cgi?charset=UTF8&addr=,wgs19840,wgs19840,,,,,,0.000000,0.000000
,,,,http://geocode.csis.u-tokyo.ac.jp/cgi-bin/simple_geocode.cgi?charset=UTF8&addr=,wgs19840,wgs19840,,,,,,0.000000,0.000000
,,,,http://geocode.csis.u-tokyo.ac.jp/cgi-bin/simple_geocode.cgi?charset=UTF8&addr=,wgs19840,wgs19840,,,,,,0.000000,0.000000
,,,,http://geocode.csis.u-tokyo.ac.jp/cgi-bin/simple_geocode.cgi?charset=UTF8&addr=,wgs19840,wgs19840,,,,,,0.000000,0.000000
,,,,http://geocode.csis.u-tokyo.ac.jp/cgi-bin/simple_geocode.cgi?charset=UTF8&addr=,wgs19840,wgs19840,,,,,,0.000000,0.000000
,,,,http://geocode.csis.u-tokyo.ac.jp/cgi-bin/simple_geocode.cgi?charset=UTF8&addr=,wgs19840,wgs19840,,,,,,0.000000,0.000000
,,,,http://geocode.csis.u-tokyo.ac.jp/cgi-bin/simple_geocode.cgi?charset=UTF8&addr=,wgs19840,wgs19840,,,,,,0.000000,0.000000
,,,,http://geocode.csis.u-tokyo.ac.jp/cgi-bin/simple_geocode.cgi?charset=UTF8&addr=,wgs19840,wgs19840,,,,,,0.000000,0.000000
,,,,http://geocode.csis.u-tokyo.ac.jp/cgi-bin/simple_geocode.cgi?charset=UTF8&addr=,wgs19840,wgs19840,,,,,,0.000000,0.000000
,,,,http://geocode.csis.u-tokyo.ac.jp/cgi-bin/simple_geocode.cgi?charset=UTF8&addr=,wgs19840,wgs19840,,,,,,0.000000,0.000000
,,,,http://geocode.csis.u-tokyo.ac.jp/cgi-bin/simple_geocode.cgi?charset=UTF8&addr=,wgs19840,wgs19840,,,,,,0.000000,0.000000